{"type": "FeatureCollection", "features": [ {"type": "Feature", "properties": {"norad_id": 34472, "name": "COSMOS 2251 DEB", "group": "cosmos-2251-debris", "lat": 70.19226758022948, "lon": -155.7112252863307, "alt_km": 1037.5405057695061, "timestamp": "2025-12-25T19:00:39.745198+00:00", "meta": {"OBJECT_NAME": "COSMOS 2251 DEB", "OBJECT_ID": "1993-036TR", "EPOCH": "2025-12-24T23:13:01.142112", "MEAN_MOTION": 13.70352504, "ECCENTRICITY": 0.03276699, "INCLINATION": 74.0845, "RA_OF_ASC_NODE": 78.0345, "ARG_OF_PERICENTER": 206.3587, "MEAN_ANOMALY": 152.054, "EPHEMERIS_TYPE": 0, "CLASSIFICATION_TYPE": "U", "NORAD_CAT_ID": 34472, "ELEMENT_SET_NO": 999, "REV_AT_EPOCH": 83894, "BSTAR": 0.00071731069, "MEAN_MOTION_DOT": 9.03e-06, "MEAN_MOTION_DDOT": 0}, "tle": {"line1": "1 34472U 93036TR  25358.96737433  .00000903  00000+0  71731-3 0  9999", "line2": "2 34472  74.0845  78.0345 0327669 206.3587 152.0540 13.70352504838940"}}, "geometry": {"type": "Point", "coordinates": [-155.7112252863307, 70.19226758022948]}}, {"type": "Feature", "properties": {"norad_id": 34474, "name": "COSMOS 2251 DEB", "group": "cosmos-2251-debris", "lat": 40.559055115606355, "lon": 109.2509853972786, "alt_km": 944.9543339289248, "timestamp": "2025-12-25T19:00:39.745208+00:00", "meta": {"OBJECT_NAME": "COSMOS 2251 DEB", "OBJECT_ID": "1993-036TT", "EPOCH": "2025-12-25T06:59:05.666784", "MEAN_MOTION": 14.06517104, "ECCENTRICITY": 0.01994087, "INCLINATION": 74.0789, "RA_OF_ASC_NODE": 304.2656, "ARG_OF_PERICENTER": 15.1247, "MEAN_ANOMALY": 104.0709, "EPHEMERIS_TYPE": 0, "CLASSIFICATION_TYPE": "U", "NORAD_CAT_ID": 34474, "ELEMENT_SET_NO": 999, "REV_AT_EPOCH": 85685, "BSTAR": 0.0024662026, "MEAN_MOTION_DOT": 4.866e-05, "MEAN_MOTION_DDOT": 0}, "tle": {"line1": "1 34474U 93036TT  25359.29103781  .00004866  00000+0  24662-2 0  9993", "line2": "2 34474  74.0789 304.2656 0199408  15.1247 104.0709 14.06517104856858"}}, "geometry": {"type": "Point", "coordinates": [109.2509853972786, 40.559055115606355]}}, {"type": "Feature", "properties": {"norad_id": 34476, "name": "COSMOS 2251 DEB", "group": "cosmos-2251-debris", "lat": 43.761687290105755, "lon": 76.44563422338535, "alt_km": 1095.2642306235857, "timestamp": "2025-12-25T19:00:39.745218+00:00", "meta": {"OBJECT_NAME": "COSMOS 2251 DEB", "OBJECT_ID": "1993-036TV", "EPOCH": "2025-12-23T04:15:02.567520", "MEAN_MOTION": 13.82132648, "ECCENTRICITY": 0.03222242, "INCLINATION": 74.0063, "RA_OF_ASC_NODE": 64.9101, "ARG_OF_PERICENTER": 282.3311, "MEAN_ANOMALY": 74.192, "EPHEMERIS_TYPE": 0, "CLASSIFICATION_TYPE": "U", "NORAD_CAT_ID": 34476, "ELEMENT_SET_NO": 999, "REV_AT_EPOCH": 83782, "BSTAR": 0.0037798313, "MEAN_MOTION_DOT": 6.03e-05, "MEAN_MOTION_DDOT": 0}, "tle": {"line1": "1 34476U 93036TV  25357.17711305  .00006030  00000+0  37798-2 0  9996", "line2": "2 34476  74.0063  64.9101 0322224 282.3311  74.1920 13.82132648837821"}}, "geometry": {"type": "Point", "coordinates": [76.44563422338535, 43.761687290105755]}}, {"type": "Feature", "properties": {"norad_id": 34477, "name": "COSMOS 2251 DEB", "group": "cosmos-2251-debris", "lat": -28.365186262252056, "lon": -126.447760102151, "alt_km": 657.3919825928579, "timestamp": "2025-12-25T19:00:39.745228+00:00", "meta": {"OBJECT_NAME": "COSMOS 2251 DEB", "OBJECT_ID": "1993-036TW", "EPOCH": "2025-12-25T07:03:41.375232", "MEAN_MOTION": 14.56948295, "ECCENTRICITY": 0.00766632, "INCLINATION": 73.9784, "RA_OF_ASC_NODE": 45.5758, "ARG_OF_PERICENTER": 230.39, "MEAN_ANOMALY": 249.0063, "EPHEMERIS_TYPE": 0, "CLASSIFICATION_TYPE": "U", "NORAD_CAT_ID": 34477, "ELEMENT_SET_NO": 999, "REV_AT_EPOCH": 88808, "BSTAR": 0.00076067349, "MEAN_MOTION_DOT": 3.526e-05, "MEAN_MOTION_DDOT": 0}, "tle": {"line1": "1 34477U 93036TW  25359.29422888  .00003526  00000+0  76067-3 0  9997", "line2": "2 34477  73.9784  45.5758 0076663 230.3900 249.0063 14.56948295888083"}}, "geometry": {"type": "Point", "coordinates": [-126.447760102151, -28.365186262252056]}}, {"type": "Feature", "properties": {"norad_id": 34478, "name": "COSMOS 2251 DEB", "group": "cosmos-2251-debris", "lat": -8.190559189748065, "lon": -22.351253726191405, "alt_km": 563.5585698856512, "timestamp": "2025-12-25T19:00:39.745238+00:00", "meta": {"OBJECT_NAME": "COSMOS 2251 DEB", "OBJECT_ID": "1993-036TX", "EPOCH": "2025-12-25T02:05:02.853312", "MEAN_MOTION": 15.09070608, "ECCENTRICITY": 0.00335713, "INCLINATION": 74.0405, "RA_OF_ASC_NODE": 341.4622, "ARG_OF_PERICENTER": 198.0741, "MEAN_ANOMALY": 283.3291, "EPHEMERIS_TYPE": 0, "CLASSIFICATION_TYPE": "U", "NORAD_CAT_ID": 34478, "ELEMENT_SET_NO": 999, "REV_AT_EPOCH": 89159, "BSTAR": 0.0032425099, "MEAN_MOTION_DOT": 0.00052389, "MEAN_MOTION_DDOT": 0}, "tle": {"line1": "1 34478U 93036TX  25359.08683858  .00052389  00000+0  32425-2 0  9991", "line2": "2 34478  74.0405 341.4622 0033571 198.0741 283.3291 15.09070608891595"}}, "geometry": {"type": "Point", "coordinates": [-22.351253726191405, -8.190559189748065]}}, {"type": "Feature", "properties": {"norad_id": 34481, "name": "COSMOS 2251 DEB", "group": "cosmos-2251-debris", "lat": -18.21138522740129, "lon": 24.118661611893707, "alt_km": 825.9324888288338, "timestamp": "2025-12-25T19:00:39.745249+00:00", "meta": {"OBJECT_NAME": "COSMOS 2251 DEB", "OBJECT_ID": "1993-036UA", "EPOCH": "2025-12-25T06:15:17.046144", "MEAN_MOTION": 14.32594013, "ECCENTRICITY": 0.00702215, "INCLINATION": 73.9789, "RA_OF_ASC_NODE": 30.5165, "ARG_OF_PERICENTER": 202.5058, "MEAN_ANOMALY": 278.0099, "EPHEMERIS_TYPE": 0, "CLASSIFICATION_TYPE": "U", "NORAD_CAT_ID": 34481, "ELEMENT_SET_NO": 999, "REV_AT_EPOCH": 87628, "BSTAR": 0.00060673036, "MEAN_MOTION_DOT": 1.667e-05, "MEAN_MOTION_DDOT": 0}, "tle": {"line1": "1 34481U 93036UA  25359.26061396  .00001667  00000+0  60673-3 0  9992", "line2": "2 34481  73.9789  30.5165 0070221 202.5058 278.0099 14.32594013876287"}}, "geometry": {"type": "Point", "coordinates": [24.118661611893707, -18.21138522740129]}}, {"type": "Feature", "properties": {"norad_id": 34482, "name": "COSMOS 2251 DEB", "group": "cosmos-2251-debris", "lat": 68.40487525384619, "lon": -115.36642432727932, "alt_km": 687.0957982269392, "timestamp": "2025-12-25T19:00:39.745259+00:00", "meta": {"OBJECT_NAME": "COSMOS 2251 DEB", "OBJECT_ID": "1993-036UB", "EPOCH": "2025-12-24T23:36:09.076896", "MEAN_MOTION": 14.69411171, "ECCENTRICITY": 0.00443249, "INCLINATION": 74.0359, "RA_OF_ASC_NODE": 199.8813, "ARG_OF_PERICENTER": 257.616, "MEAN_ANOMALY": 221.5647, "EPHEMERIS_TYPE": 0, "CLASSIFICATION_TYPE": "U", "NORAD_CAT_ID": 34482, "ELEMENT_SET_NO": 999, "REV_AT_EPOCH": 88367, "BSTAR": 0.0017945463, "MEAN_MOTION_DOT": 0.00010765, "MEAN_MOTION_DDOT": 0}, "tle": {"line1": "1 34482U 93036UB  25358.98343839  .00010765  00000+0  17945-2 0  9998", "line2": "2 34482  74.0359 199.8813 0044324 257.6160 221.5647 14.69411171883678"}}, "geometry": {"type": "Point", "coordinates": [-115.36642432727932, 68.40487525384619]}}, {"type": "Feature", "properties": {"norad_id": 34544, "name": "COSMOS 2251 DEB", "group": "cosmos-2251-debris", "lat": -16.917008130849094, "lon": 177.86496552673742, "alt_km": 1250.0224815152878, "timestamp": "2025-12-25T19:00:39.745269+00:00", "meta": {"OBJECT_NAME": "COSMOS 2251 DEB", "OBJECT_ID": "1993-036UE", "EPOCH": "2025-12-22T13:17:43.726848", "MEAN_MOTION": 13.54671118, "ECCENTRICITY": 0.03836445, "INCLINATION": 73.9138, "RA_OF_ASC_NODE": 188.1407, "ARG_OF_PERICENTER": 214.797, "MEAN_ANOMALY": 178.3987, "EPHEMERIS_TYPE": 0, "CLASSIFICATION_TYPE": "U", "NORAD_CAT_ID": 34544, "ELEMENT_SET_NO": 999, "REV_AT_EPOCH": 83015, "BSTAR": 0.00039748277, "MEAN_MOTION_DOT": 4.13e-06, "MEAN_MOTION_DDOT": 0}, "tle": {"line1": "1 34544U 93036UE  25356.55397832  .00000413  00000+0  39748-3 0  9995", "line2": "2 34544  73.9138 188.1407 0383644 214.7970 178.3987 13.54671118830157"}}, "geometry": {"type": "Point", "coordinates": [177.86496552673742, -16.917008130849094]}}, {"type": "Feature", "properties": {"norad_id": 34546, "name": "COSMOS 2251 DEB", "group": "cosmos-2251-debris", "lat": -47.02454530416489, "lon": 62.74941370902366, "alt_km": 740.9286938645664, "timestamp": "2025-12-25T19:00:39.745279+00:00", "meta": {"OBJECT_NAME": "COSMOS 2251 DEB", "OBJECT_ID": "1993-036UG", "EPOCH": "2025-12-24T19:14:52.113120", "MEAN_MOTION": 14.45457369, "ECCENTRICITY": 0.00220619, "INCLINATION": 74.0293, "RA_OF_ASC_NODE": 226.6945, "ARG_OF_PERICENTER": 299.1119, "MEAN_ANOMALY": 180.3706, "EPHEMERIS_TYPE": 0, "CLASSIFICATION_TYPE": "U", "NORAD_CAT_ID": 34546, "ELEMENT_SET_NO": 999, "REV_AT_EPOCH": 88200, "BSTAR": 0.0004931407, "MEAN_MOTION_DOT": 1.715e-05, "MEAN_MOTION_DDOT": 0}, "tle": {"line1": "1 34546U 93036UG  25358.80199205  .00001715  00000+0  49314-3 0  9997", "line2": "2 34546  74.0293 226.6945 0022061 299.1119 180.3706 14.45457369882007"}}, "geometry": {"type": "Point", "coordinates": [62.74941370902366, -47.02454530416489]}}, {"type": "Feature", "properties": {"norad_id": 34547, "name": "COSMOS 2251 DEB", "group": "cosmos-2251-debris", "lat": -63.18344412765153, "lon": -70.18274951827165, "alt_km": 660.5435947018523, "timestamp": "2025-12-25T19:00:39.745289+00:00", "meta": {"OBJECT_NAME": "COSMOS 2251 DEB", "OBJECT_ID": "1993-036UH", "EPOCH": "2025-12-24T22:19:25.423968", "MEAN_MOTION": 14.7260031, "ECCENTRICITY": 0.00159248, "INCLINATION": 74.0301, "RA_OF_ASC_NODE": 76.9883, "ARG_OF_PERICENTER": 154.8954, "MEAN_ANOMALY": 205.2996, "EPHEMERIS_TYPE": 0, "CLASSIFICATION_TYPE": "U", "NORAD_CAT_ID": 34547, "ELEMENT_SET_NO": 999, "REV_AT_EPOCH": 88701, "BSTAR": 0.0017419579, "MEAN_MOTION_DOT": 0.00011095, "MEAN_MOTION_DDOT": 0}, "tle": {"line1": "1 34547U 93036UH  25358.93015537  .00011095  00000+0  17420-2 0  9991", "line2": "2 34547  74.0301  76.9883 0015924 154.8954 205.2996 14.72600310887019"}}, "geometry": {"type": "Point", "coordinates": [-70.18274951827165, -63.18344412765153]}}]}